{
  "type": "FeatureCollection",
  "features": [
    {
      "type": "Feature",
      "properties": {
        "norad_id": 41772,
        "name": "SKYSAT-C5",
        "group": "resource",
        "lat": -43.06559758213697,
        "lon": -161.38579401724388,
        "alt_km": 466.638219127085,
        "timestamp": "2025-12-07T07:31:35.960344+00:00",
        "meta_object_name": "SKYSAT-C5",
        "meta_object_id": "2016-058C",
        "meta_epoch": "2025-12-06T21:10:22.149984",
        "meta_mean_motion": 15.35498705,
        "meta_eccentricity": 0.00027404,
        "meta_inclination": 97.0762,
        "meta_ra_of_asc_node": 24.8672,
        "meta_arg_of_pericenter": 119.1882,
        "meta_mean_anomaly": 240.9637,
        "meta_ephemeris_type": 0,
        "meta_classification_type": "U",
        "meta_norad_cat_id": 41772,
        "meta_element_set_no": 999,
        "meta_rev_at_epoch": 51426,
        "meta_bstar": 0.00046008144,
        "meta_mean_motion_dot": 0.00015811,
        "meta_mean_motion_ddot": 0,
        "tle_line1": "1 41772U 16058C   25340.88220081  .00015811  00000+0  46008-3 0  9990",
        "tle_line2": "2 41772  97.0762  24.8672 0002740 119.1882 240.9637 15.35498705514262"
      },
      "geometry": {
        "type": "Point",
        "coordinates": [
          -161.38579401724388,
          -43.06559758213697
        ]
      }
    },
    {
      "type": "Feature",
      "properties": {
        "norad_id": 41773,
        "name": "SKYSAT-C2",
        "group": "resource",
        "lat": -16.244427962700485,
        "lon": -175.99128166602816,
        "alt_km": 462.47149160308436,
        "timestamp": "2025-12-07T07:31:35.960355+00:00",
        "meta_object_name": "SKYSAT-C2",
        "meta_object_id": "2016-058D",
        "meta_epoch": "2025-12-06T19:44:19.794912",
        "meta_mean_motion": 15.37074556,
        "meta_eccentricity": 0.00048009,
        "meta_inclination": 97.036,
        "meta_ra_of_asc_node": 5.6008,
        "meta_arg_of_pericenter": 49.6267,
        "meta_mean_anomaly": 310.5397,
        "meta_ephemeris_type": 0,
        "meta_classification_type": "U",
        "meta_norad_cat_id": 41773,
        "meta_element_set_no": 999,
        "meta_rev_at_epoch": 51545,
        "meta_bstar": 0.00051962252,
        "meta_mean_motion_dot": 0.00018805,
        "meta_mean_motion_ddot": 0,
        "tle_line1": "1 41773U 16058D   25340.82245133  .00018805  00000+0  51962-3 0  9991",
        "tle_line2": "2 41773  97.0360   5.6008 0004800  49.6267 310.5397 15.37074556515455"
      },
      "geometry": {
        "type": "Point",
        "coordinates": [
          -175.99128166602816,
          -16.244427962700485
        ]
      }
    },
    {
      "type": "Feature",
      "properties": {
        "norad_id": 41774,
        "name": "SKYSAT-C3",
        "group": "resource",
        "lat": -65.97464487680737,
        "lon": 179.4787440692911,
        "alt_km": 442.0816076693409,
        "timestamp": "2025-12-07T07:31:35.960365+00:00",
        "meta_object_name": "SKYSAT-C3",
        "meta_object_id": "2016-058E",
        "meta_epoch": "2025-12-06T21:07:43.510944",
        "meta_mean_motion": 15.44097169,
        "meta_eccentricity": 0.00015045,
        "meta_inclination": 96.93,
        "meta_ra_of_asc_node": 14.9005,
        "meta_arg_of_pericenter": 103.8796,
        "meta_mean_anomaly": 256.2621,
        "meta_ephemeris_type": 0,
        "meta_classification_type": "U",
        "meta_norad_cat_id": 41774,
        "meta_element_set_no": 999,
        "meta_rev_at_epoch": 51635,
        "meta_bstar": 0.00057628913,
        "meta_mean_motion_dot": 0.00026324,
        "meta_mean_motion_ddot": 0,
        "tle_line1": "1 41774U 16058E   25340.88036471  .00026324  00000+0  57629-3 0  9992",
        "tle_line2": "2 41774  96.9300  14.9005 0001504 103.8796 256.2621 15.44097169516355"
      },
      "geometry": {
        "type": "Point",
        "coordinates": [
          179.4787440692911,
          -65.97464487680737
        ]
      }
    },
    {
      "type": "Feature",
      "properties": {
        "norad_id": 41785,
        "name": "ALSAT 1B",
        "group": "resource",
        "lat": 71.10439965725419,
        "lon": -30.209434675796846,
        "alt_km": 642.4829109067232,
        "timestamp": "2025-12-07T07:31:35.960375+00:00",
        "meta_object_name": "ALSAT 1B",
        "meta_object_id": "2016-059C",
        "meta_epoch": "2025-12-06T23:02:26.903904",
        "meta_mean_motion": 14.72066265,
        "meta_eccentricity": 0.00105469,
        "meta_inclination": 97.7815,
        "meta_ra_of_asc_node": 352.9992,
        "meta_arg_of_pericenter": 120.1679,
        "meta_mean_anomaly": 240.0576,
        "meta_ephemeris_type": 0,
        "meta_classification_type": "U",
        "meta_norad_cat_id": 41785,
        "meta_element_set_no": 999,
        "meta_rev_at_epoch": 49229,
        "meta_bstar": 0.00014344384,
        "meta_mean_motion_dot": 8.55e-06,
        "meta_mean_motion_ddot": 0,
        "tle_line1": "1 41785U 16059C   25340.96003361  .00000855  00000+0  14344-3 0  9994",
        "tle_line2": "2 41785  97.7815 352.9992 0010546 120.1679 240.0576 14.72066265492294"
      },
      "geometry": {
        "type": "Point",
        "coordinates": [
          -30.209434675796846,
          71.10439965725419
        ]
      }
    },
    {
      "type": "Feature",
      "properties": {
        "norad_id": 41787,
        "name": "PATHFINDER 1",
        "group": "resource",
        "lat": -63.37398753657393,
        "lon": 148.4419932673357,
        "alt_km": 694.5759946591861,
        "timestamp": "2025-12-07T07:31:35.960385+00:00",
        "meta_object_name": "PATHFINDER 1",
        "meta_object_id": "2016-059E",
        "meta_epoch": "2025-12-06T22:14:06.987264",
        "meta_mean_motion": 14.67305309,
        "meta_eccentricity": 0.00300323,
        "meta_inclination": 97.8138,
        "meta_ra_of_asc_node": 343.9699,
        "meta_arg_of_pericenter": 98.8647,
        "meta_mean_anomaly": 261.5961,
        "meta_ephemeris_type": 0,
        "meta_classification_type": "U",
        "meta_norad_cat_id": 41787,
        "meta_element_set_no": 999,
        "meta_rev_at_epoch": 49151,
        "meta_bstar": 0.00025902707,
        "meta_mean_motion_dot": 1.425e-05,
        "meta_mean_motion_ddot": 0,
        "tle_line1": "1 41787U 16059E   25340.92646976  .00001425  00000+0  25903-3 0  9994",
        "tle_line2": "2 41787  97.8138 343.9699 0030032  98.8647 261.5961 14.67305309491516"
      },
      "geometry": {
        "type": "Point",
        "coordinates": [
          148.4419932673357,
          -63.37398753657393
        ]
      }
    },
    {
      "type": "Feature",
      "properties": {
        "norad_id": 41790,
        "name": "SCATSAT 1",
        "group": "resource",
        "lat": 9.539108716434903,
        "lon": 36.5370611261263,
        "alt_km": 662.3067665484432,
        "timestamp": "2025-12-07T07:31:35.960395+00:00",
        "meta_object_name": "SCATSAT 1",
        "meta_object_id": "2016-059H",
        "meta_epoch": "2025-12-06T21:44:23.885664",
        "meta_mean_motion": 14.78906272,
        "meta_eccentricity": 0.00560114,
        "meta_inclination": 98.1469,
        "meta_ra_of_asc_node": 37.5036,
        "meta_arg_of_pericenter": 146.4506,
        "meta_mean_anomaly": 214.0272,
        "meta_ephemeris_type": 0,
        "meta_classification_type": "U",
        "meta_norad_cat_id": 41790,
        "meta_element_set_no": 999,
        "meta_rev_at_epoch": 7316,
        "meta_bstar": 0.00042242668,
        "meta_mean_motion_dot": 3.141e-05,
        "meta_mean_motion_ddot": 0,
        "tle_line1": "1 41790U 16059H   25340.90583201  .00003141  00000+0  42243-3 0  9990",
        "tle_line2": "2 41790  98.1469  37.5036 0056011 146.4506 214.0272 14.78906272 73164"
      },
      "geometry": {
        "type": "Point",
        "coordinates": [
          36.5370611261263,
          9.539108716434903
        ]
      }
    },
    {
      "type": "Feature",
      "properties": {
        "norad_id": 41875,
        "name": "GOKTURK 1A",
        "group": "resource",
        "lat": 49.0347650649987,
        "lon": -135.7418578468904,
        "alt_km": 679.0660369198094,
        "timestamp": "2025-12-07T07:31:35.960405+00:00",
        "meta_object_name": "GOKTURK 1A",
        "meta_object_id": "2016-073A",
        "meta_epoch": "2025-12-06T23:05:30.114240",
        "meta_mean_motion": 14.62769123,
        "meta_eccentricity": 0.00012421,
        "meta_inclination": 98.1437,
        "meta_ra_of_asc_node": 233.4045,
        "meta_arg_of_pericenter": 82.7596,
        "meta_mean_anomaly": 277.3747,
        "meta_ephemeris_type": 0,
        "meta_classification_type": "U",
        "meta_norad_cat_id": 41875,
        "meta_element_set_no": 999,
        "meta_rev_at_epoch": 48072,
        "meta_bstar": 0.00020308911,
        "meta_mean_motion_dot": 9.89e-06,
        "meta_mean_motion_ddot": 0,
        "tle_line1": "1 41875U 16073A   25340.96215410  .00000989  00000+0  20309-3 0  9996",
        "tle_line2": "2 41875  98.1437 233.4045 0001242  82.7596 277.3747 14.62769123480725"
      },
      "geometry": {
        "type": "Point",
        "coordinates": [
          -135.7418578468904,
          49.0347650649987
        ]
      }
    }
  ]
}